start=new Date('2022-08-12T00:00:00.000Z').valueOf();
sats=[{"GP_ID":"210041177","EPOCH":"2022-08-11T14:37:40.790496","TLE_LINE1":"1 50844U 22001AT  22223.60949989  .00001000  00000-0  80906-4 0  9999","OBJECT_TYPE":"PAYLOAD","CENTER_NAME":"EARTH","MEAN_MOTION_DOT":"0.00001000","MEAN_MOTION":"15.08832686","ARG_OF_PERICENTER":"50.8178","SITE":"AFETR","EPHEMERIS_TYPE":"0","PERIAPSIS":"538.574","REV_AT_EPOCH":"3437","LAUNCH_DATE":"2022-01-06","RA_OF_ASC_NODE":"282.3531","CLASSIFICATION_TYPE":"U","RCS_SIZE":"LARGE","FILE":"3534745","BSTAR":"0.00008090600000","MEAN_ELEMENT_THEORY":"SGP4","TIME_SYSTEM":"UTC","NORAD_CAT_ID":"50844","INCLINATION":"53.2166","MEAN_ANOMALY":"309.2967","PERIOD":"95.438","DECAY_DATE":null,"COUNTRY_CODE":"US","APOAPSIS":"540.962","OBJECT_NAME":"STARLINK-3326","ELEMENT_SET_NO":"999","TLE_LINE2":"2 50844  53.2166 282.3531 0001726  50.8178 309.2967 15.08832686 34375","MEAN_MOTION_DDOT":"0.0000000000000","REF_FRAME":"TEME","OBJECT_ID":"2022-001AT","SEMIMAJOR_AXIS":"6917.903","ECCENTRICITY":"0.00017260"},{"PERIAPSIS":"538.611","LAUNCH_DATE":"2022-01-06","REV_AT_EPOCH":"3431","CLASSIFICATION_TYPE":"U","RA_OF_ASC_NODE":"282.7424","BSTAR":"-0.00005917000000","FILE":"3534745","RCS_SIZE":"LARGE","MEAN_ELEMENT_THEORY":"SGP4","TIME_SYSTEM":"UTC","MEAN_ANOMALY":"306.3106","INCLINATION":"53.2184","NORAD_CAT_ID":"50845","GP_ID":"210041179","EPOCH":"2022-08-11T12:30:30.672576","TLE_LINE1":"1 50845U 22001AU  22223.52118834 -.00001229  00000-0 -59170-4 0  9992","OBJECT_TYPE":"PAYLOAD","MEAN_MOTION_DOT":"-0.00001229","CENTER_NAME":"EARTH","MEAN_MOTION":"15.08830722","ARG_OF_PERICENTER":"53.8041","EPHEMERIS_TYPE":"0","SITE":"AFETR","TLE_LINE2":"2 50845  53.2184 282.7424 0001681  53.8041 306.3106 15.08830722 34319","REF_FRAME":"TEME","MEAN_MOTION_DDOT":"0.0000000000000","OBJECT_ID":"2022-001AU","SEMIMAJOR_AXIS":"6917.909","ECCENTRICITY":"0.00016810","PERIOD":"95.438","DECAY_DATE":null,"COUNTRY_CODE":"US","APOAPSIS":"540.937","OBJECT_NAME":"STARLINK-3230","ELEMENT_SET_NO":"999"},{"LAUNCH_DATE":"2022-01-06","REV_AT_EPOCH":"3441","PERIAPSIS":"538.696","MEAN_ANOMALY":"300.7599","INCLINATION":"53.2170","NORAD_CAT_ID":"50846","TIME_SYSTEM":"UTC","MEAN_ELEMENT_THEORY":"SGP4","RCS_SIZE":"LARGE","FILE":"3534745","BSTAR":"0.00009611900000","CLASSIFICATION_TYPE":"U","RA_OF_ASC_NODE":"281.1777","TLE_LINE1":"1 50846U 22001AV  22223.87078862  .00001242  00000-0  96119-4 0  9994","GP_ID":"210041176","EPOCH":"2022-08-11T20:53:56.136768","EPHEMERIS_TYPE":"0","SITE":"AFETR","ARG_OF_PERICENTER":"59.3547","MEAN_MOTION":"15.08828307","OBJECT_TYPE":"PAYLOAD","MEAN_MOTION_DOT":"0.00001242","CENTER_NAME":"EARTH","OBJECT_ID":"2022-001AV","REF_FRAME":"TEME","MEAN_MOTION_DDOT":"0.0000000000000","TLE_LINE2":"2 50846  53.2170 281.1777 0001569  59.3547 300.7599 15.08828307 34417","ECCENTRICITY":"0.00015690","SEMIMAJOR_AXIS":"6917.916","APOAPSIS":"540.867","COUNTRY_CODE":"US","PERIOD":"95.438","DECAY_DATE":null,"ELEMENT_SET_NO":"999","OBJECT_NAME":"STARLINK-3308"},{"REF_FRAME":"TEME","MEAN_MOTION_DDOT":"0.0000000000000","TLE_LINE2":"2 50847  53.2170 283.1284 0001514  83.2475 276.8689 15.08837063 34264","OBJECT_ID":"2022-001AW","SEMIMAJOR_AXIS":"6917.889","ECCENTRICITY":"0.00015140","PERIOD":"95.438","DECAY_DATE":null,"APOAPSIS":"540.802","COUNTRY_CODE":"US","OBJECT_NAME":"STARLINK-3319","ELEMENT_SET_NO":"999","LAUNCH_DATE":"2022-01-06","REV_AT_EPOCH":"3426","PERIAPSIS":"538.707","FILE":"3534746","BSTAR":"0.00008533600000","RCS_SIZE":"LARGE","CLASSIFICATION_TYPE":"U","RA_OF_ASC_NODE":"283.1284","MEAN_ANOMALY":"276.8689","INCLINATION":"53.2170","NORAD_CAT_ID":"50847","MEAN_ELEMENT_THEORY":"SGP4","TIME_SYSTEM":"UTC","GP_ID":"210041244","EPOCH":"2022-08-11T10:23:22.157376","TLE_LINE1":"1 50847U 22001AW  22223.43289534  .00001070  00000-0  85336-4 0  9995","MEAN_MOTION":"15.08837063","CENTER_NAME":"EARTH","OBJECT_TYPE":"PAYLOAD","MEAN_MOTION_DOT":"0.00001070","EPHEMERIS_TYPE":"0","SITE":"AFETR","ARG_OF_PERICENTER":"83.2475"},{"APOAPSIS":"541.001","COUNTRY_CODE":"US","PERIOD":"95.438","DECAY_DATE":null,"ELEMENT_SET_NO":"999","OBJECT_NAME":"STARLINK-3315","OBJECT_ID":"2022-001AX","MEAN_MOTION_DDOT":"0.0000000000000","REF_FRAME":"TEME","TLE_LINE2":"2 50848  53.2185 281.1928 0001756  44.3301 315.7831 15.08826510 34445","ECCENTRICITY":"0.00017560","SEMIMAJOR_AXIS":"6917.922","TLE_LINE1":"1 50848U 22001AX  22223.86711338  .00001036  00000-0  83193-4 0  9996","EPOCH":"2022-08-11T20:48:38.596032","GP_ID":"210041308","SITE":"AFETR","EPHEMERIS_TYPE":"0","ARG_OF_PERICENTER":"44.3301","MEAN_MOTION":"15.08826510","OBJECT_TYPE":"PAYLOAD","MEAN_MOTION_DOT":"0.00001036","CENTER_NAME":"EARTH","REV_AT_EPOCH":"3444","LAUNCH_DATE":"2022-01-06","PERIAPSIS":"538.572","INCLINATION":"53.2185","NORAD_CAT_ID":"50848","MEAN_ANOMALY":"315.7831","TIME_SYSTEM":"UTC","MEAN_ELEMENT_THEORY":"SGP4","RCS_SIZE":"LARGE","FILE":"3534749","BSTAR":"0.00008319300000","RA_OF_ASC_NODE":"281.1928","CLASSIFICATION_TYPE":"U"},{"MEAN_MOTION":"15.08867564","OBJECT_TYPE":"PAYLOAD","CENTER_NAME":"EARTH","MEAN_MOTION_DOT":"-0.00008843","SITE":"AFETR","EPHEMERIS_TYPE":"0","ARG_OF_PERICENTER":"58.0189","EPOCH":"2022-08-11T21:04:31.835136","GP_ID":"210041253","TLE_LINE1":"1 50849U 22001AY  22223.87814624 -.00008843  00000-0 -53779-3 0  9991","FILE":"3534749","RCS_SIZE":"LARGE","BSTAR":"-0.00053779000000","RA_OF_ASC_NODE":"281.1455","CLASSIFICATION_TYPE":"U","NORAD_CAT_ID":"50849","INCLINATION":"53.2171","MEAN_ANOMALY":"302.0948","MEAN_ELEMENT_THEORY":"SGP4","TIME_SYSTEM":"UTC","REV_AT_EPOCH":"3433","LAUNCH_DATE":"2022-01-06","PERIAPSIS":"538.626","OBJECT_NAME":"STARLINK-3311","ELEMENT_SET_NO":"999","PERIOD":"95.436","DECAY_DATE":null,"APOAPSIS":"540.696","COUNTRY_CODE":"US","SEMIMAJOR_AXIS":"6917.796","ECCENTRICITY":"0.00014960","MEAN_MOTION_DDOT":"0.0000000000000","REF_FRAME":"TEME","TLE_LINE2":"2 50849  53.2171 281.1455 0001496  58.0189 302.0948 15.08867564 34333","OBJECT_ID":"2022-001AY"},{"REF_FRAME":"TEME","MEAN_MOTION_DDOT":"0.0000000000000","TLE_LINE2":"2 50850  53.2149 240.9512 0001908  45.2903 144.2259 15.08802942 34977","OBJECT_ID":"2022-001AZ","SEMIMAJOR_AXIS":"6917.994","ECCENTRICITY":"0.00019080","DECAY_DATE":null,"PERIOD":"95.440","APOAPSIS":"541.179","COUNTRY_CODE":"US","OBJECT_NAME":"STARLINK-3312","ELEMENT_SET_NO":"999","LAUNCH_DATE":"2022-01-06","REV_AT_EPOCH":"3497","PERIAPSIS":"538.539","FILE":"3534749","RCS_SIZE":"LARGE","BSTAR":"0.00249730000000","CLASSIFICATION_TYPE":"U","RA_OF_ASC_NODE":"240.9512","MEAN_ANOMALY":"144.2259","NORAD_CAT_ID":"50850","INCLINATION":"53.2149","TIME_SYSTEM":"UTC","MEAN_ELEMENT_THEORY":"SGP4","EPOCH":"2022-08-11T22:00:00.999936","GP_ID":"210041258","TLE_LINE1":"1 50850U 22001AZ  22223.91667824  .00039640  00000-0  24973-2 0  9996","MEAN_MOTION":"15.08802942","MEAN_MOTION_DOT":"0.00039640","OBJECT_TYPE":"PAYLOAD","CENTER_NAME":"EARTH","EPHEMERIS_TYPE":"0","SITE":"AFETR","ARG_OF_PERICENTER":"45.2903"},{"ELEMENT_SET_NO":"999","OBJECT_NAME":"STARLINK-3314","APOAPSIS":"540.907","COUNTRY_CODE":"US","PERIOD":"95.439","DECAY_DATE":null,"ECCENTRICITY":"0.00015840","SEMIMAJOR_AXIS":"6917.947","OBJECT_ID":"2022-001BA","MEAN_MOTION_DDOT":"0.0000000000000","REF_FRAME":"TEME","TLE_LINE2":"2 50851  53.2172 281.2109 0001584  49.9537 310.1593 15.08818346 34417","SITE":"AFETR","EPHEMERIS_TYPE":"0","ARG_OF_PERICENTER":"49.9537","MEAN_MOTION":"15.08818346","OBJECT_TYPE":"PAYLOAD","MEAN_MOTION_DOT":"-0.00000423","CENTER_NAME":"EARTH","TLE_LINE1":"1 50851U 22001BA  22223.86344734 -.00000423  00000-0 -84782-5 0  9999","GP_ID":"210041301","EPOCH":"2022-08-11T20:43:21.850176","NORAD_CAT_ID":"50851","INCLINATION":"53.2172","MEAN_ANOMALY":"310.1593","TIME_SYSTEM":"UTC","MEAN_ELEMENT_THEORY":"SGP4","FILE":"3534749","BSTAR":"-0.00000847820000","RCS_SIZE":"LARGE","RA_OF_ASC_NODE":"281.2109","CLASSIFICATION_TYPE":"U","REV_AT_EPOCH":"3441","LAUNCH_DATE":"2022-01-06","PERIAPSIS":"538.716"},{"FILE":"3534572","BSTAR":"0.00006065700000","RCS_SIZE":"LARGE","CLASSIFICATION_TYPE":"U","RA_OF_ASC_NODE":"31.7020","MEAN_ANOMALY":"294.0250","INCLINATION":"53.2183","NORAD_CAT_ID":"51104","MEAN_ELEMENT_THEORY":"SGP4","TIME_SYSTEM":"UTC","REV_AT_EPOCH":"3283","LAUNCH_DATE":"2022-01-19","PERIAPSIS":"538.767","MEAN_MOTION":"15.08837508","CENTER_NAME":"EARTH","OBJECT_TYPE":"PAYLOAD","MEAN_MOTION_DOT":"0.00000677","EPHEMERIS_TYPE":"0","SITE":"AFETR","ARG_OF_PERICENTER":"66.0891","GP_ID":"210037257","EPOCH":"2022-08-11T18:00:22.248000","TLE_LINE1":"1 51104U 22005A   22223.75025750  .00000677  00000-0  60657-4 0  9990","SEMIMAJOR_AXIS":"6917.888","ECCENTRICITY":"0.00014260","REF_FRAME":"TEME","MEAN_MOTION_DDOT":"0.0000000000000","TLE_LINE2":"2 51104  53.2183  31.7020 0001426  66.0891 294.0250 15.08837508 32834","OBJECT_ID":"2022-005A","OBJECT_NAME":"STARLINK-3366","ELEMENT_SET_NO":"999","DECAY_DATE":null,"PERIOD":"95.438","APOAPSIS":"540.739","COUNTRY_CODE":"US"},{"OBJECT_NAME":"STARLINK-3350","ELEMENT_SET_NO":"999","DECAY_DATE":null,"PERIOD":"95.438","APOAPSIS":"540.868","COUNTRY_CODE":"US","SEMIMAJOR_AXIS":"6917.915","ECCENTRICITY":"0.00015730","REF_FRAME":"TEME","MEAN_MOTION_DDOT":"0.0000000000000","TLE_LINE2":"2 51105  53.2182  31.5445 0001573  65.9774 294.1382 15.08828753 32844","OBJECT_ID":"2022-005B","MEAN_MOTION":"15.08828753","OBJECT_TYPE":"PAYLOAD","CENTER_NAME":"EARTH","MEAN_MOTION_DOT":"0.00000799","EPHEMERIS_TYPE":"0","SITE":"AFETR","ARG_OF_PERICENTER":"65.9774","GP_ID":"210036879","EPOCH":"2022-08-11T18:58:40.507968","TLE_LINE1":"1 51105U 22005B   22223.79074662  .00000799  00000-0  68307-4 0  9996","FILE":"3534572","BSTAR":"0.00006830700000","RCS_SIZE":"LARGE","CLASSIFICATION_TYPE":"U","RA_OF_ASC_NODE":"31.5445","MEAN_ANOMALY":"294.1382","NORAD_CAT_ID":"51105","INCLINATION":"53.2182","MEAN_ELEMENT_THEORY":"SGP4","TIME_SYSTEM":"UTC","REV_AT_EPOCH":"3284","LAUNCH_DATE":"2022-01-19","PERIAPSIS":"538.692"}];
